{
  "norad_id": 66072,
  "name": "STARLINK-35299",
  "history": [
    {
      "epoch": "2026-03-28T14:13:15.252096Z",
      "apogee_km": 475.92005832299037,
      "perigee_km": 474.41233162009667,
      "latitude_deg": -2.9037732359534305e-06,
      "longitude_deg": 118.28147988188175,
      "height_km": 475.98380843237607,
      "semi_major_axis_km": 6853.303194971543,
      "eccentricity": 0.00011,
      "inclination_deg": 53.1603,
      "raan_deg": 157.6058,
      "arg_perigee_deg": 83.8516,
      "mean_anomaly_deg": 276.261,
      "mean_motion_rev_day": 15.30216369
    },
    {
      "epoch": "2026-03-29T04:19:44.249664Z",
      "apogee_km": 476.60547286774454,
      "perigee_km": 473.70104845527567,
      "latitude_deg": 3.826413595258154e-05,
      "longitude_deg": -96.65060993786855,
      "height_km": 476.0613760892727,
      "semi_major_axis_km": 6853.29026066151,
      "eccentricity": 0.0002119,
      "inclination_deg": 53.1585,
      "raan_deg": 154.8739,
      "arg_perigee_deg": 90.4503,
      "mean_anomaly_deg": 269.6741,
      "mean_motion_rev_day": 15.30220701
    },
    {
      "epoch": "2026-03-29T21:34:19.495200Z",
      "apogee_km": 476.3887222723615,
      "perigee_km": 473.9349671539994,
      "latitude_deg": -4.998029696533351e-05,
      "longitude_deg": 0.6577183501735177,
      "height_km": 476.00053828519947,
      "semi_major_axis_km": 6853.29884471318,
      "eccentricity": 0.00017902,
      "inclination_deg": 53.1601,
      "raan_deg": 151.5373,
      "arg_perigee_deg": 87.2586,
      "mean_anomaly_deg": 272.8619,
      "mean_motion_rev_day": 15.30217826
    },
    {
      "epoch": "2026-03-30T13:14:51.416736Z",
      "apogee_km": 476.02833348171225,
      "perigee_km": 474.41614925377326,
      "latitude_deg": -3.380125146927309e-05,
      "longitude_deg": 121.84815339760762,
      "height_km": 476.0196101826003,
      "semi_major_axis_km": 6853.3592413677425,
      "eccentricity": 0.00011762,
      "inclination_deg": 53.1603,
      "raan_deg": 148.5045,
      "arg_perigee_deg": 82.8104,
      "mean_anomaly_deg": 277.303,
      "mean_motion_rev_day": 15.30197598
    },
    {
      "epoch": "2026-03-31T20:35:55.733280Z",
      "apogee_km": 476.04493838959206,
      "perigee_km": 474.45632313678107,
      "latitude_deg": -8.036058167877858e-07,
      "longitude_deg": 4.224246111132842,
      "height_km": 476.03034738258117,
      "semi_major_axis_km": 6853.387630763186,
      "eccentricity": 0.0001159,
      "inclination_deg": 53.1601,
      "raan_deg": 142.4361,
      "arg_perigee_deg": 81.4176,
      "mean_anomaly_deg": 278.6956,
      "mean_motion_rev_day": 15.3018809
    },
    {
      "epoch": "2026-04-01T12:16:27.405120Z",
      "apogee_km": 475.7974044954017,
      "perigee_km": 474.5596957070529,
      "latitude_deg": 1.8486385793190094e-05,
      "longitude_deg": 125.4163268657359,
      "height_km": 475.9451094492135,
      "semi_major_axis_km": 6853.315550101227,
      "eccentricity": 9.03e-05,
      "inclination_deg": 53.1584,
      "raan_deg": 139.4039,
      "arg_perigee_deg": 77.6967,
      "mean_anomaly_deg": 282.4135,
      "mean_motion_rev_day": 15.30212231
    },
    {
      "epoch": "2026-04-02T11:47:15.169056Z",
      "apogee_km": 476.1323962142633,
      "perigee_km": 474.25088336949557,
      "latitude_deg": 6.953110976845771e-06,
      "longitude_deg": 127.19914722392132,
      "height_km": 475.85348210765454,
      "semi_major_axis_km": 6853.328639791879,
      "eccentricity": 0.00013727,
      "inclination_deg": 53.1587,
      "raan_deg": 134.8514,
      "arg_perigee_deg": 75.4703,
      "mean_anomaly_deg": 284.645,
      "mean_motion_rev_day": 15.30207847
    },
    {
      "epoch": "2026-04-03T11:18:02.921760Z",
      "apogee_km": 475.8820129235828,
      "perigee_km": 474.68910619286544,
      "latitude_deg": -1.8813183569316172e-05,
      "longitude_deg": 128.98350327964877,
      "height_km": 476.1497184562383,
      "semi_major_axis_km": 6853.422559558224,
      "eccentricity": 8.703e-05,
      "inclination_deg": 53.1575,
      "raan_deg": 130.3004,
      "arg_perigee_deg": 86.7148,
      "mean_anomaly_deg": 273.3952,
      "mean_motion_rev_day": 15.30176392
    },
    {
      "epoch": "2026-04-04T09:14:47.862816Z",
      "apogee_km": 475.86694358369095,
      "perigee_km": 474.48065587512156,
      "latitude_deg": -7.112766033439261e-06,
      "longitude_deg": 154.6470745148356,
      "height_km": 475.86206495035515,
      "semi_major_axis_km": 6853.310799729406,
      "eccentricity": 0.00010114,
      "inclination_deg": 53.157,
      "raan_deg": 126.0525,
      "arg_perigee_deg": 72.3718,
      "mean_anomaly_deg": 287.7393,
      "mean_motion_rev_day": 15.30213822
    },
    {
      "epoch": "2026-04-05T08:45:36.432000Z",
      "apogee_km": 476.0167838963207,
      "perigee_km": 474.4688795275306,
      "latitude_deg": 5.382617639144878e-05,
      "longitude_deg": 156.42768230409084,
      "height_km": 475.93416762512743,
      "semi_major_axis_km": 6853.379831711925,
      "eccentricity": 0.00011293,
      "inclination_deg": 53.1568,
      "raan_deg": 121.5011,
      "arg_perigee_deg": 74.515,
      "mean_anomaly_deg": 285.5976,
      "mean_motion_rev_day": 15.30190702
    },
    {
      "epoch": "2026-04-05T18:09:55.650240Z",
      "apogee_km": 476.0032361456588,
      "perigee_km": 474.44204082001306,
      "latitude_deg": -6.62872458139584e-05,
      "longitude_deg": 13.141452579072611,
      "height_km": 475.97363505731363,
      "semi_major_axis_km": 6853.359638482836,
      "eccentricity": 0.0001139,
      "inclination_deg": 53.1566,
      "raan_deg": 119.6813,
      "arg_perigee_deg": 79.1506,
      "mean_anomaly_deg": 280.9622,
      "mean_motion_rev_day": 15.30197465
    },
    {
      "epoch": "2026-04-06T05:08:17.767392Z",
      "apogee_km": 475.8440256220192,
      "perigee_km": 474.53887775168096,
      "latitude_deg": 4.821888571062644e-05,
      "longitude_deg": -154.02675517181646,
      "height_km": 475.746632403177,
      "semi_major_axis_km": 6853.32845168685,
      "eccentricity": 9.522e-05,
      "inclination_deg": 53.1562,
      "raan_deg": 117.5558,
      "arg_perigee_deg": 58.2798,
      "mean_anomaly_deg": 301.8296,
      "mean_motion_rev_day": 15.3020791
    },
    {
      "epoch": "2026-04-07T04:39:05.128704Z",
      "apogee_km": 476.37987634602723,
      "perigee_km": 473.8770637963571,
      "latitude_deg": 1.9764679758231294e-05,
      "longitude_deg": -152.23826869442843,
      "height_km": 476.89991955774764,
      "semi_major_axis_km": 6853.265470071192,
      "eccentricity": 0.0001826,
      "inclination_deg": 53.1582,
      "raan_deg": 113.0073,
      "arg_perigee_deg": 134.2761,
      "mean_anomaly_deg": 225.839,
      "mean_motion_rev_day": 15.30229004
    },
    {
      "epoch": "2026-04-08T10:26:05.976960Z",
      "apogee_km": 476.079805912791,
      "perigee_km": 474.31589458903363,
      "latitude_deg": -1.3115318182476217e-05,
      "longitude_deg": 114.02150098697106,
      "height_km": 475.95192463831586,
      "semi_major_axis_km": 6853.3348502509125,
      "eccentricity": 0.00012869,
      "inclination_deg": 53.1589,
      "raan_deg": 107.2438,
      "arg_perigee_deg": 80.6103,
      "mean_anomaly_deg": 279.5043,
      "mean_motion_rev_day": 15.30205767
    },
    {
      "epoch": "2026-04-09T06:48:47.690784Z",
      "apogee_km": 476.0834952723435,
      "perigee_km": 474.3538453682686,
      "latitude_deg": -1.7575992840284704e-05,
      "longitude_deg": 163.56648234555422,
      "height_km": 476.14993590289146,
      "semi_major_axis_km": 6853.355670320306,
      "eccentricity": 0.00012619,
      "inclination_deg": 53.1595,
      "raan_deg": 103.2995,
      "arg_perigee_deg": 92.2021,
      "mean_anomaly_deg": 267.9124,
      "mean_motion_rev_day": 15.30198794
    },
    {
      "epoch": "2026-04-10T09:27:41.860800Z",
      "apogee_km": 476.2472859967447,
      "perigee_km": 474.20498378254797,
      "latitude_deg": -2.6363319315884835e-05,
      "longitude_deg": 117.58505427400789,
      "height_km": 476.34888730701044,
      "semi_major_axis_km": 6853.363134889646,
      "eccentricity": 0.000149,
      "inclination_deg": 53.1601,
      "raan_deg": 98.1382,
      "arg_perigee_deg": 102.7245,
      "mean_anomaly_deg": 257.3922,
      "mean_motion_rev_day": 15.30196294
    },
    {
      "epoch": "2026-04-11T16:48:46.260288Z",
      "apogee_km": 476.4148368044516,
      "perigee_km": 474.0490538445265,
      "latitude_deg": 6.308039496010934e-05,
      "longitude_deg": -0.0355617632341216,
      "height_km": 476.19613561253976,
      "semi_major_axis_km": 6853.368945324489,
      "eccentricity": 0.0001726,
      "inclination_deg": 53.1608,
      "raan_deg": 92.0734,
      "arg_perigee_deg": 93.2314,
      "mean_anomaly_deg": 266.8885,
      "mean_motion_rev_day": 15.30194348
    },
    {
      "epoch": "2026-04-12T22:35:46.703328Z",
      "apogee_km": 476.39377205912024,
      "perigee_km": 473.99921733607243,
      "latitude_deg": 1.2693254658373758e-05,
      "longitude_deg": -93.77580933855484,
      "height_km": 476.21636055687014,
      "semi_major_axis_km": 6853.333494697596,
      "eccentricity": 0.0001747,
      "inclination_deg": 53.1563,
      "raan_deg": 86.3082,
      "arg_perigee_deg": 95.8892,
      "mean_anomaly_deg": 264.2308,
      "mean_motion_rev_day": 15.30206221
    },
    {
      "epoch": "2026-04-14T21:37:22.575072Z",
      "apogee_km": 476.33202484488993,
      "perigee_km": 474.05945970755147,
      "latitude_deg": 2.2923292569793896e-05,
      "longitude_deg": -90.2049805100377,
      "height_km": 476.10320019251475,
      "semi_major_axis_km": 6853.33274227622,
      "eccentricity": 0.0001658,
      "inclination_deg": 53.1603,
      "raan_deg": 77.2098,
      "arg_perigee_deg": 90.4989,
      "mean_anomaly_deg": 269.6202,
      "mean_motion_rev_day": 15.30206473
    },
    {
      "epoch": "2026-04-15T14:51:57.775680Z",
      "apogee_km": 476.1032862370439,
      "perigee_km": 474.34471380443756,
      "latitude_deg": -5.659460683895491e-05,
      "longitude_deg": 7.101443017218732,
      "height_km": 476.14058316971074,
      "semi_major_axis_km": 6853.36100002074,
      "eccentricity": 0.0001283,
      "inclination_deg": 53.1593,
      "raan_deg": 73.8711,
      "arg_perigee_deg": 91.2117,
      "mean_anomaly_deg": 268.903,
      "mean_motion_rev_day": 15.30197009
    }
  ]
}